{
"type": "FeatureCollection",
"name": "Docklands_sub",
"crs": { "type": "name", "properties": { "name": "urn:ogc:def:crs:OGC:1.3:CRS84" } },
"features": [
{ "type": "Feature", "properties": { "SAL_CODE21": "20766", "SAL_NAME21": "Docklands", "STE_CODE21": "2", "STE_NAME21": "Victoria", "AUS_CODE21": "AUS", "AUS_NAME21": "Australia", "AREASQKM21": 3.148, "LOCI_URI21": "http://linked.data.gov.au/dataset/asgsed3/SAL/20766", "SHAPE_Leng": 0.09119967218, "SHAPE_Area": 0.00032207892 }, "geometry": { "type": "MultiPolygon", "coordinates": [ [ [ [ 144.95221011700005, -37.823716416999957 ], [ 144.949818638000011, -37.823526836999974 ], [ 144.949201028000061, -37.823450596999976 ], [ 144.948370178000118, -37.823364695999942 ], [ 144.947940938000102, -37.823374925999929 ], [ 144.947927728000082, -37.823756285999934 ], [ 144.948041088000082, -37.824196825999934 ], [ 144.94807422800011, -37.824300775999973 ], [ 144.948103028000105, -37.824444695999944 ], [ 144.948128578000023, -37.82455026599996 ], [ 144.94811310800003, -37.824741785999947 ], [ 144.947975938000013, -37.825221835999969 ], [ 144.947836948000031, -37.825528825999982 ], [ 144.947563928000022, -37.825818835999939 ], [ 144.947455928000068, -37.825914825999973 ], [ 144.947215938000113, -37.826136825999981 ], [ 144.947058948000063, -37.826315835999935 ], [ 144.946975948000045, -37.826415825999959 ], [ 144.946929918000023, -37.826480835999973 ], [ 144.946878928000046, -37.826582825999935 ], [ 144.946548938000092, -37.82651184599996 ], [ 144.946133928000108, -37.826441835999958 ], [ 144.94571092800004, -37.826386835999983 ], [ 144.945008928000107, -37.826299835999976 ], [ 144.944593079000015, -37.826229575999946 ], [ 144.942968939000025, -37.825953825999932 ], [ 144.942295959000035, -37.825864845999945 ], [ 144.941448939000111, -37.825784835999968 ], [ 144.940526439000109, -37.825726575999965 ], [ 144.94034969900008, -37.825721335999958 ], [ 144.940102049000075, -37.825720445999934 ], [ 144.939792929000077, -37.825452825999946 ], [ 144.939558790000092, -37.825251905999949 ], [ 144.937715210000079, -37.823658995999949 ], [ 144.937857920000056, -37.823083835999967 ], [ 144.937135950000084, -37.822926835999965 ], [ 144.936802600000078, -37.822896235999963 ], [ 144.936507930000062, -37.822833835999973 ], [ 144.935236621000058, -37.822567245999949 ], [ 144.935226561000036, -37.82256513599998 ], [ 144.932720581000012, -37.822039634999953 ], [ 144.931477501000018, -37.821778714999937 ], [ 144.928552872000068, -37.821163844999944 ], [ 144.926809012000035, -37.820974034999949 ], [ 144.924750553000081, -37.820749924999973 ], [ 144.920626383000013, -37.82079852499993 ], [ 144.920376653000062, -37.820017524999969 ], [ 144.919900184000085, -37.818531683999936 ], [ 144.926714033000053, -37.816228584999976 ], [ 144.928805852000096, -37.816053034999982 ], [ 144.929168992000086, -37.816022564999969 ], [ 144.929634952000015, -37.815887574999977 ], [ 144.930444962000024, -37.815635544999964 ], [ 144.931154922000019, -37.815371554999956 ], [ 144.931934882000064, -37.815264544999934 ], [ 144.932409902000018, -37.815076534999946 ], [ 144.932910862000085, -37.814520534999929 ], [ 144.933302872000013, -37.814045524999983 ], [ 144.934271832000036, -37.81289251499993 ], [ 144.934443792000025, -37.812666514999933 ], [ 144.934700822000082, -37.811904484999957 ], [ 144.934676842000044, -37.810518484999932 ], [ 144.934699802000068, -37.810300474999963 ], [ 144.934726812000122, -37.810143464999953 ], [ 144.935025922000023, -37.809445834999963 ], [ 144.935436952000032, -37.809498834999943 ], [ 144.935968942000045, -37.809558835999951 ], [ 144.936803952000105, -37.809712845999968 ], [ 144.937238962000038, -37.809832835999941 ], [ 144.937919941000018, -37.81003983599993 ], [ 144.938517951000108, -37.810260835999941 ], [ 144.939111951000086, -37.810506825999937 ], [ 144.94010895100007, -37.81096583599998 ], [ 144.940830961000074, -37.811320825999985 ], [ 144.941372941000054, -37.811590835999937 ], [ 144.942034951000096, -37.81193783599997 ], [ 144.942883940000115, -37.812439835999953 ], [ 144.943032930000072, -37.812491845999944 ], [ 144.943192940000017, -37.812526845999969 ], [ 144.943345950000094, -37.812531835999948 ], [ 144.943534950000071, -37.812506845999962 ], [ 144.943723950000049, -37.812453845999983 ], [ 144.944723940000017, -37.812065845999939 ], [ 144.944951950000018, -37.812039825999932 ], [ 144.945090940000114, -37.812049835999971 ], [ 144.945254940000041, -37.812079825999945 ], [ 144.945451930000104, -37.811848835999967 ], [ 144.946027640000011, -37.811628385999938 ], [ 144.94782943000007, -37.810943265999981 ], [ 144.94811741, -37.811521055999947 ], [ 144.948252059000083, -37.811639235999962 ], [ 144.949295339000059, -37.81255488599993 ], [ 144.950334679000093, -37.813466776999974 ], [ 144.951441289000059, -37.81315365699993 ], [ 144.951652729000102, -37.813614146999953 ], [ 144.951813219000087, -37.813963736999938 ], [ 144.951896629000089, -37.814145356999973 ], [ 144.95234670800005, -37.815123486999937 ], [ 144.952798138000048, -37.816104926999969 ], [ 144.953245628000104, -37.817078826999932 ], [ 144.953700528000013, -37.818068516999972 ], [ 144.953919888000087, -37.818545746999973 ], [ 144.954154988000028, -37.819056656999976 ], [ 144.954399098000067, -37.819587976999969 ], [ 144.954627297000116, -37.820085276999976 ], [ 144.955080917000032, -37.82108590699994 ], [ 144.955159397000102, -37.821252386999959 ], [ 144.955363467000097, -37.821685766999963 ], [ 144.955740917000071, -37.822506776999944 ], [ 144.955993017000083, -37.823040076999973 ], [ 144.955273927000121, -37.823332346999962 ], [ 144.954396977000101, -37.823542406999934 ], [ 144.953330047, -37.823691246999942 ], [ 144.95221011700005, -37.823716416999957 ] ] ] ] } }
]
}
